SKYSAT-A                
1 39418U 13066C   25050.44288855  .00008701  00000+0  55414-3 0  9994
2 39418  97.4513 109.4354 0023553 175.6619 184.4818 15.08760702615580
DUBAISAT-2              
1 39419U 13066D   25050.57184995  .00007781  00000+0  55504-3 0  9996
2 39419  97.4315  51.1199 0010474 241.9453 118.0715 15.04771365613672
GPM-CORE                
1 39574U 14009C   25050.57612212  .00024866  00000+0  53326-3 0  9997
2 39574  64.9785 124.7099 0008591 253.8625 106.1570 15.44660851623286
SENTINEL-1A             
1 39634U 14016A   25050.62478682  .00000489  00000+0  11351-3 0  9996
2 39634  98.1825  60.1393 0001327  89.7708 270.3644 14.59196660579648
KAZEOSAT 1              
1 39731U 14024A   25050.57889415  .00000559  00000+0  18345-3 0  9995
2 39731  98.3694 128.6692 0001011  87.7219 272.4086 14.42049243569007
ALOS-2                  
1 39766U 14029A   25050.57880565  .00004544  00000+0  61500-3 0  9994
2 39766  97.9203 149.6782 0001512 101.3894 258.7487 14.79465754580225
KAZEOSAT 2              
1 40010U 14033A   25050.56846638  .00001458  00000+0  18038-3 0  9994
2 40010  97.5884 269.7169 0010597 109.2073 251.0289 14.84137645577337
HODOYOSHI-4             
1 40011U 14033B   25050.56433663  .00003581  00000+0  41179-3 0  9996
2 40011  97.5602 254.0292 0025763 102.8809 257.5287 14.86140246577070
DEIMOS-2                
1 40013U 14033D   25050.58656906  .00003597  00000+0  36665-3 0  9998
2 40013  97.6503 295.7608 0002129  97.6100 262.5361 14.91284399565735
HODOYOSHI-3             
1 40015U 14033F   25050.50615796  .00005264  00000+0  64211-3 0  9995
2 40015  97.6011 229.8834 0034785 141.8296 218.5392 14.83312607576014
SPOT 7                  
1 40053U 14034A   25050.56980498  .00001253  00000+0  26933-3 0  9991
2 40053  98.1264 118.9225 0001000  87.5765 272.5550 14.60211503566681
SKYSAT-B                
1 40072U 14037D   25050.53725121  .00003556  00000+0  41430-3 0  9999
2 40072  98.3362 339.5171 0007079  51.7679 308.4171 14.85921678574239
WORLDVIEW-3 (WV-3)      
1 40115U 14048A   25050.52706793  .00002326  00000+0  27794-3 0  9993
2 40115  97.8494 126.4457 0007329 121.9850 238.2079 14.85130917570271
GAOFEN-2                
1 40118U 14049A   25050.57013505  .00002721  00000+0  36265-3 0  9996
2 40118  98.0764 108.5873 0004887 342.9481  17.1566 14.80472650567821
YAOGAN-21               
1 40143U 14053A   25050.56388006  .00016243  00000+0  68718-3 0  9991
2 40143  97.2171 105.9007 0016325  34.2738 325.9550 15.23150323581443
YAOGAN-22               
1 40275U 14063A   25050.63715162  .00000008  00000+0  14338-3 0  9994
2 40275 100.6941 190.5150 0006379 192.3402 167.7554 13.15503333496368
ASNARO                  
1 40298U 14070A   25050.54628647  .00020217  00000+0  96310-3 0  9992
2 40298  97.3871 133.2631 0001516 145.5838 214.5495 15.19156642570716
HODOYOSHI-1             
1 40299U 14070B   25050.55839373  .00382606  60463-4  95445-3 0  9999
2 40299  97.0899 118.7843 0004259 217.6382 142.4597 15.95775634573761
YAOGAN-24               
1 40310U 14072A   25050.59885734  .00002224  00000+0  32973-3 0  9999
2 40310  98.0801 180.8451 0013227  20.3653 339.8082 14.76060508552526
CBERS 4                 
1 40336U 14079A   25050.56255053  .00000344  00000+0  13435-3 0  9999
2 40336  98.3685 118.0393 0000813  53.4912 306.6349 14.35513825534716
YAOGAN-26               
1 40362U 14088A   25050.59418588  .00021401  00000+0  77362-3 0  9991
2 40362  97.0714  64.0887 0006095  16.5790 343.5649 15.28447934563551
SMAP                    
1 40376U 15003A   25050.61808311  .00001382  00000+0  27640-3 0  9994
2 40376  98.1307  59.5067 0001508  78.5194 281.6177 14.63376526537044
KOMPSAT-3A              
1 40536U 15014A   25050.56894146  .00022940  00000+0  74137-3 0  9995
2 40536  97.6444  12.0609 0004450 123.2682 236.8985 15.32092189547433
SENTINEL-2A             
1 40697U 15028A   25050.42851684  .00000409  00000+0  16872-3 0  9991
2 40697  98.5622 127.1655 0001764 124.6863 235.4487 14.31958556504699
GAOFEN-8                
1 40701U 15030A   25050.57683116  .00026201  00000+0  97820-3 0  9999
2 40701  97.6775 216.9872 0013846 103.3267 256.9516 15.27279278537339
CARBONITE 1 (CBNT-1)    
1 40718U 15032D   25050.56366520  .00004662  00000+0  60719-3 0  9999
2 40718  97.6458 244.9535 0016223  77.3701 282.9325 14.80962947517848
YAOGAN-27               
1 40878U 15040A   25050.59570220 -.00000007  00000+0  93831-4 0  9994
2 40878 100.0859  53.8040 0007673 246.5554 113.4754 13.16041588454180
GAOFEN-9 01             
1 40894U 15047A   25050.58516483  .00002575  00000+0  33407-3 0  9992
2 40894  97.6951 101.7617 0026760 281.6744  78.1466 14.81366703508701
LAPAN-A2                
1 40931U 15052B   25038.81889873  .00001817  00000+0  15548-3 0  9992
2 40931   6.0001 108.1159 0012838 187.7041 172.2889 14.78568669506492
YAOGAN-28               
1 41026U 15064A   25050.58305230  .00015800  00000+0  66569-3 0  9995
2 41026  97.2383 197.8250 0011329  60.3101 299.9262 15.23361929517155
YAOGAN-29               
1 41038U 15069A   25050.61908029  .00001134  00000+0  14830-3 0  9991
2 41038  98.0449  72.4373 0002510 123.4473 236.6980 14.82410966499119
KENT RIDGE 1            
1 41167U 15077B   25049.87823828  .00007140  00000+0  29957-3 0  9991
2 41167  14.9798 248.9843 0009277 281.4482  78.4798 15.18671064507533
TELEOS-1                
1 41169U 15077D   25050.44425310  .00113392  00000+0  15219-2 0  9994
2 41169  14.9777  82.2245 0004558 221.7484 138.2495 15.56041110509067
GAOFEN-4                
1 41194U 15083A   25050.58693134 -.00000324  00000+0  00000+0 0  9995
2 41194   0.3245  85.4756 0001497 258.3534 122.9332  1.00272595 33651
JASON-3                 
1 41240U 16002A   25050.57703255 -.00000046  00000+0  65205-4 0  9998
2 41240  66.0412  57.7295 0008168 272.4402  87.5678 12.80930621425184
SENTINEL-3A             
1 41335U 16011A   25050.58264196  .00000306  00000+0  14458-3 0  9991
2 41335  98.6232 119.8302 0001203 105.8822 254.2491 14.26741605469242
ZIYUAN 3-2 (ZY 3-2)     
1 41556U 16033A   25050.60331879  .00014512  00000+0  65182-3 0  9990
2 41556  97.4289 129.1939 0008639 191.4470 168.6570 15.21228669484616
CARTOSAT-2C             
1 41599U 16040A   25050.60740583  .00009670  00000+0  45909-3 0  9995
2 41599  97.4388 112.5635 0012332  10.2510 349.8974 15.19387103480444
SKYSAT-C1               
1 41601U 16040C   25050.58655549  .00017215  00000+0  57459-3 0  9990
2 41601  97.0247 104.3819 0003485 209.5653 150.5392 15.31103545483984
LAPAN-A3                
1 41603U 16040E   25050.57529622  .00007121  00000+0  25846-3 0  9993
2 41603  97.1404  59.5749 0009591 308.3226  51.7151 15.28567416480971
BIROS                   
1 41604U 16040F   25050.58531249  .00041556  00000+0  65958-3 0  9991
2 41604  97.1005  79.9028 0005343 203.7886 156.3122 15.53235112482375
GAOFEN-3                
1 41727U 16049A   25050.62779943  .00000223  00000+0  80868-4 0  9990
2 41727  98.4066  60.6225 0001368  92.4313 267.7033 14.42216638449098
SKYSAT-C4               
1 41771U 16058B   25050.57142231  .00011081  00000+0  33462-3 0  9998
2 41771  96.9721  91.3630 0002686  43.0498 317.0956 15.34404677471169
SKYSAT-C5               
1 41772U 16058C   25050.11077562  .00019565  00000+0  54284-3 0  9993
2 41772  97.1192 104.3926 0009584  96.9194 263.3142 15.36905585469626
SKYSAT-C2               
1 41773U 16058D   25050.57003544  .00016786  00000+0  56731-3 0  9994
2 41773  96.9785  88.9571 0001682 108.0899 252.0527 15.30705695470979
SKYSAT-C3               
1 41774U 16058E   25050.62640960  .00020473  00000+0  57678-3 0  9999
2 41774  96.9721  99.5515 0006661 109.7677 250.4287 15.36441928471710
ALSAT 1B                
1 41785U 16059C   25050.60704319  .00001018  00000+0  17110-3 0  9990
2 41785  97.7993  74.9222 0008958 345.9039  14.1917 14.71626780449585
PATHFINDER 1            
1 41787U 16059E   25050.56140581  .00001893  00000+0  34745-3 0  9996
2 41787  97.8199  67.1093 0027719 306.0892  53.7746 14.66577825448944
SCATSAT 1               
1 41790U 16059H   25050.59844026  .00003033  00000+0  42098-3 0  9996
2 41790  98.1863 103.1108 0056575   1.6923 358.4468 14.77598290 30273
GOKTURK 1A              
1 41875U 16073A   25050.58856302  .00001118  00000+0  22847-3 0  9997
2 41875  98.1269 307.4078 0001328  81.7318 278.4034 14.62738434438277
RESOURCESAT-2A          
1 41877U 16074A   25050.53359651  .00000372  00000+0  18910-3 0  9997
2 41877  98.6175 124.6572 0001289  42.9172 317.2106 14.21671713425720
CARTOSAT-2D             
1 41948U 17008A   25050.57299948  .00010332  00000+0  49339-3 0  9996
2 41948  97.4780 111.8013 0004208 125.6529 234.5097 15.19226462444305
SENTINEL-2B             
1 42063U 17013A   25050.62015260  .00000342  00000+0  14703-3 0  9997
2 42063  98.5667 127.3363 0001001  98.1497 261.9799 14.30818281415631
ZHUHAI-1 02 (CAS-4B)    
1 42759U 17034B   25050.55503520  .00048840  00000+0  90856-3 0  9993
2 42759  43.0100 250.2386 0017990 244.7885 115.1109 15.47942870425463
NUSAT-3 (MILANESAT)     
1 42760U 17034C   25050.55809842  .00091068  00000+0  12258-2 0  9990
2 42760  43.0012 224.6309 0022010 273.1657  86.6687 15.56568846425773
ZHUHAI-1 01 (CAS-4A)    
1 42761U 17034D   25050.58342055  .00057010  00000+0  10388-2 0  9993
2 42761  43.0135 248.0035 0019288 250.7191 109.1582 15.48449704425477
CARTOSAT-2E             
1 42767U 17036C   25050.58875559  .00009380  00000+0  44868-3 0  9999
2 42767  97.4031 111.6900 0002126 207.0316 153.0809 15.19196155424874
FORMOSAT-5              
1 42920U 17049A   25050.57103116  .00000607  00000+0  16544-3 0  9999
2 42920  98.2675 130.4140 0011913 119.1372 241.1016 14.50696157396690
SENTINEL-5P             
1 42969U 17064A   25050.58722667  .00000233  00000+0  13148-3 0  9990
2 42969  98.7479 352.3495 0000911  82.0075 278.1205 14.19564594381094
SKYSAT-C11              
1 42987U 17068A   25050.63272796  .00024963  00000+0  70964-3 0  9998
2 42987  97.3760 184.4791 0006834 164.4170 195.7286 15.36125705408715
